ONEWEB-0116             
1 48046U 21025E   26009.44869712 -.00000065  00000+0 -21185-3 0  9992
2 48046  87.9000 351.7552 0001846  81.1979 278.9359 13.13470675232816
ONEWEB-0150             
1 48047U 21025F   26009.42498903 -.00000171  00000+0 -50391-3 0  9990
2 48047  87.9002 351.7560 0001884  89.8596 270.2749 13.13470756232706
ONEWEB-0107             
1 48048U 21025G   26009.50286947 -.00000249  00000+0 -71795-3 0  9990
2 48048  87.9000 351.7370 0001600  92.2178 267.9135 13.13469073232694
ONEWEB-0101             
1 48049U 21025H   26009.46562505  .00000328  00000+0  86336-3 0  9996
2 48049  87.8991 351.7754 0001573  84.5601 275.5708 13.13470612232662
ONEWEB-0113             
1 48050U 21025J   26009.47105127  .00000327  00000+0  85332-3 0  9996
2 48050  87.8998 351.6998 0001968  83.0941 277.0412 13.13987216232762
ONEWEB-0112             
1 48051U 21025K   26009.50793074 -.00003283  00000+0 -90282-2 0  9990
2 48051  87.9000 351.7334 0001885  87.3296 272.8049 13.13478081232765
ONEWEB-0156             
1 48052U 21025L   26009.44023082 -.00000192  00000+0 -56127-3 0  9996
2 48052  87.8998 351.7579 0001725  89.3953 270.7374 13.13471916232732
ONEWEB-0161             
1 48053U 21025M   26009.49101930  .00000079  00000+0  18066-3 0  9993
2 48053  87.8994 351.7615 0001666  90.6683 269.4637 13.13469854232677
